COSMOS 2058             
1 20465U 90010A   26163.89999536  .00003857  00000+0  22297-3 0  9990
2 20465  82.4664 313.5828 0009757  16.0536 344.1001 15.11984576956626
SL-14 R/B               
1 20466U 90010B   26164.32361254  .00000362  00000+0  40857-4 0  9991
2 20466  82.5016 177.5734 0019427 349.3438  10.7362 14.83643977942661
SL-14 R/B               
1 20511U 90018B   26164.29843811  .00000351  00000+0  40924-4 0  9993
2 20511  82.5209 133.7424 0017227 133.6463 226.6183 14.82213782936741
HST                     
1 20580U 90037B   26164.23141094  .00006133  00000+0  19317-3 0  9993
2 20580  28.4712 107.6084 0001932 101.0971 258.9842 15.30704754787962
SL-16 R/B               
1 20625U 90046B   26164.27222653  .00000251  00000+0  15410-3 0  9993
2 20625  70.9994  97.1699 0013677 167.6168 192.5293 14.15024824861912
COSMOS 2084             
1 20663U 90055A   26164.27700880  .00001963  00000+0  14737-3 0  9990
2 20663  62.7910   9.4372 0005492 272.2443  87.8028 15.06100930950713
SL-6 R/B(2)             
1 20666U 90055D   26164.06006841  .00001523  00000+0  12261-3 0  9998
2 20666  62.7825 289.4204 0039970   4.5701 355.5755 15.03990575952539
SL-8 R/B                
1 20775U 90078B   26164.03772983  .00019607  00000+0  55219-3 0  9990
2 20775  82.9008 165.3935 0351850  52.4449 310.8185 14.92159211823501
SL-8 R/B                
1 21088U 91006B   26164.29622179  .00000028  00000+0  12376-4 0  9994
2 21088  82.9424  98.9282 0023526 124.9135 345.7240 13.77505563777234
OKEAN-3                 
1 21397U 91039A   26164.28318914  .00002221  00000+0  15306-3 0  9993
2 21397  82.5158 244.1666 0014387  12.4968 347.6613 15.05306518879418
COSMOS 2151             
1 21422U 91042A   26164.25844217  .00001633  00000+0  12751-3 0  9990
2 21422  82.4960 351.4728 0013819  95.8104 264.4696 15.00427487877525
SL-14 R/B               
1 21423U 91042B   26164.30415013  .00000342  00000+0  40195-4 0  9995
2 21423  82.4925 130.5369 0015509 288.9111  71.0421 14.81900227867236
ERS-1                   
1 21574U 91050A   26164.06386688  .00000324  00000+0  11821-3 0  9992
2 21574  98.7797 184.6610 0030707 279.7518  80.0202 14.39515370829458
ARIANE 40 R/B           
1 21610U 91050F   26164.09648974  .00000257  00000+0  89181-4 0  9995
2 21610  98.1877 212.6726 0004090 130.1256 230.0293 14.42954788832755
INTERCOSMOS 25          
1 21819U 91086A   26164.23263886  .00000551  00000+0  10986-3 0  9999
2 21819  82.6052 252.2030 1484162 270.9317  72.2635 12.12190988508262
SL-8 R/B                
1 21876U 92008B   26164.20203301  .00000139  00000+0  12724-3 0  9994
2 21876  82.9263 196.7506 0033609 226.1326 209.3006 13.75975887722554
SL-8 R/B                
1 21938U 92020B   26164.28307258  .00000043  00000+0  28462-4 0  9992
2 21938  82.9306  82.7571 0029964  33.2187  84.5823 13.75548420714277
USA 81                  
1 21949U 92023A   26164.29304246  .00000145  00000+0  46404-4 0  9991
2 21949  85.0077  76.2549 0002777  88.1707 271.9804 14.32397208108471
COSMOS 2219             
1 22219U 92076A   26164.30005087  .00000175  00000+0  11648-3 0  9997
2 22219  71.0576 178.1981 0016414  50.5249 309.7322 14.14096840731891
SL-16 R/B               
1 22220U 92076B   26164.23946241 -.00000032  00000+0  81670-5 0  9994
2 22220  71.0003 347.0977 0014581 303.8294 229.0594 14.16871147735361
COSMOS 2221             
1 22236U 92080A   26164.12722494  .00001303  00000+0  11222-3 0  9991
2 22236  82.5030 187.6544 0012984 226.9881 133.0254 14.96523873795063
SL-16 R/B               
1 22285U 92093B   26164.28495107 -.00000282  00000+0 -12010-3 0  9997
2 22285  71.0199 163.5836 0004180 194.8817 165.2184 14.15463010726682
COSMOS 2228             
1 22286U 92094A   26164.21235478  .00001898  00000+0  15994-3 0  9991
2 22286  82.5173 145.8500 0017283 346.1099  13.9646 14.97573225790352
SL-16 R/B               
1 22566U 93016B   26163.98191729  .00000308  00000+0  18266-3 0  9990
2 22566  71.0083  15.0403 0010515 189.3353 170.7576 14.15311427715655
COSMOS 2242             
1 22626U 93024A   26164.30368182  .00001606  00000+0  13744-3 0  9990
2 22626  82.5179 175.2584 0015721 349.8159  10.2742 14.96892859794691
SL-16 R/B               
1 22803U 93059B   26164.25509531  .00000212  00000+0  12842-3 0  9994
2 22803  70.9886 169.5959 0015105  60.7442 299.5190 14.17247343693070
ARIANE 40 R/B           
1 22830U 93061H   26164.15536177  .00000168  00000+0  77385-4 0  9996
2 22830  98.4819 231.0961 0010732   8.4254 351.7109 14.32906302707778
COSMOS 2278             
1 23087U 94023A   26164.21572075  .00000253  00000+0  15692-3 0  9991
2 23087  71.0547 335.2345 0010594 247.7643 112.2356 14.14396543658316
SL-16 R/B               
1 23088U 94023B   26164.21925480  .00000326  00000+0  19308-3 0  9993
2 23088  70.9994 230.2644 0003035 189.9335 170.1729 14.15022621659608
SL-16 R/B               
1 23343U 94074B   26164.08970285  .00000385  00000+0  58106-4 0  9996
2 23343  97.6991 190.9813 0005079 270.9856 151.6973 14.79499078701353
