OBJECT_NAME,OBJECT_ID,EPOCH,MEAN_MOTION,ECCENTRICITY,INCLINATION,RA_OF_ASC_NODE,ARG_OF_PERICENTER,MEAN_ANOMALY,EPHEMERIS_TYPE,CLASSIFICATION_TYPE,NORAD_CAT_ID,ELEMENT_SET_NO,REV_AT_EPOCH,BSTAR,MEAN_MOTION_DOT,MEAN_MOTION_DDOT
COSMOS 2058,1990-010A,2026-06-12T21:35:59.599104,15.11984576,.00097576,82.4664,313.5828,16.0536,344.1001,0,U,20465,999,95662,.22296784E-3,.3857E-4,0
SL-14 R/B,1990-010B,2026-06-13T07:46:00.123456,14.83643977,.00194271,82.5016,177.5734,349.3438,10.7362,0,U,20466,999,94266,.40857142E-4,.362E-5,0
SL-14 R/B,1990-018B,2026-06-13T07:09:45.052704,14.82213782,.00172274,82.5209,133.7424,133.6463,226.6183,0,U,20511,999,93674,.40924044E-4,.351E-5,0
HST,1990-037B,2026-06-13T05:33:13.905216,15.30704754,.00019324,28.4712,107.6084,101.0971,258.9842,0,U,20580,999,78796,.19317422E-3,.6133E-4,0
SL-16 R/B,1990-046B,2026-06-13T06:32:00.372192,14.15024824,.00136779,70.9994,97.1699,167.6168,192.5293,0,U,20625,999,86191,.1540963E-3,.251E-5,0
COSMOS 2084,1990-055A,2026-06-13T06:38:53.560320,15.06100930,.00054927,62.7910,9.4372,272.2443,87.8028,0,U,20663,999,95071,.14737041E-3,.1963E-4,0
SL-6 R/B(2),1990-055D,2026-06-13T01:26:29.910624,15.03990575,.00399709,62.7825,289.4204,4.5701,355.5755,0,U,20666,999,95253,.12260968E-3,.1523E-4,0
SL-8 R/B,1990-078B,2026-06-13T00:54:19.857312,14.92159211,.03518508,82.9008,165.3935,52.4449,310.8185,0,U,20775,999,82350,.55218987E-3,.19607E-3,0
SL-8 R/B,1991-006B,2026-06-13T07:06:33.562656,13.77505563,.00235264,82.9424,98.9282,124.9135,345.7240,0,U,21088,999,77723,.12375971E-4,.28E-6,0
OKEAN-3,1991-039A,2026-06-13T06:47:47.541696,15.05306518,.00143879,82.5158,244.1666,12.4968,347.6613,0,U,21397,999,87941,.15306082E-3,.2221E-4,0
COSMOS 2151,1991-042A,2026-06-13T06:12:09.403488,15.00427487,.00138196,82.4960,351.4728,95.8104,264.4696,0,U,21422,999,87752,.12751492E-3,.1633E-4,0
SL-14 R/B,1991-042B,2026-06-13T07:17:58.571232,14.81900227,.00155091,82.4925,130.5369,288.9111,71.0421,0,U,21423,999,86723,.40195339E-4,.342E-5,0
ERS-1,1991-050A,2026-06-13T01:31:58.098432,14.39515370,.00307076,98.7797,184.6610,279.7518,80.0202,0,U,21574,999,82945,.11821405E-3,.324E-5,0
ARIANE 40 R/B,1991-050F,2026-06-13T02:18:56.713536,14.42954788,.00040908,98.1877,212.6726,130.1256,230.0293,0,U,21610,999,83275,.89181316E-4,.257E-5,0
INTERCOSMOS 25,1991-086A,2026-06-13T05:34:59.997504,12.12190988,.14841622,82.6052,252.2030,270.9317,72.2635,0,U,21819,999,50826,.10986485E-3,.551E-5,0
SL-8 R/B,1992-008B,2026-06-13T04:50:55.652064,13.75975887,.00336098,82.9263,196.7506,226.1326,209.3006,0,U,21876,999,72255,.12723739E-3,.139E-5,0
SL-8 R/B,1992-020B,2026-06-13T06:47:37.470912,13.75548420,.00299643,82.9306,82.7571,33.2187,84.5823,0,U,21938,999,71427,.28462118E-4,.43E-6,0
USA 81,1992-023A,2026-06-13T07:01:58.868544,14.32397208,.00027777,85.0077,76.2549,88.1707,271.9804,0,U,21949,999,10847,.46404433E-4,.145E-5,0
COSMOS 2219,1992-076A,2026-06-13T07:12:04.395168,14.14096840,.0016414,71.0576,178.1981,50.5249,309.7322,0,U,22219,999,73189,.1164784E-3,.175E-5,0
SL-16 R/B,1992-076B,2026-06-13T05:44:49.552224,14.16871147,.00145811,71.0003,347.0977,303.8294,229.0594,0,U,22220,999,73536,.8167011E-5,-.32E-6,0
COSMOS 2221,1992-080A,2026-06-13T03:03:12.234816,14.96523873,.0012984,82.5030,187.6544,226.9881,133.0254,0,U,22236,999,79506,.11222155E-3,.1303E-4,0
SL-16 R/B,1992-093B,2026-06-13T06:50:19.772448,14.15463010,.00041801,71.0199,163.5836,194.8817,165.2184,0,U,22285,999,72668,-.12010201E-3,-.282E-5,0
COSMOS 2228,1992-094A,2026-06-13T05:05:47.452992,14.97573225,.0017283,82.5173,145.8500,346.1099,13.9646,0,U,22286,999,79035,.15993766E-3,.1898E-4,0
SL-16 R/B,1993-016B,2026-06-12T23:33:57.653856,14.15311427,.00105159,71.0083,15.0403,189.3353,170.7576,0,U,22566,999,71565,.18265836E-3,.308E-5,0
COSMOS 2242,1993-024A,2026-06-13T07:17:18.109248,14.96892859,.00157216,82.5179,175.2584,349.8159,10.2742,0,U,22626,999,79469,.13744437E-3,.1606E-4,0
SL-16 R/B,1993-059B,2026-06-13T06:07:20.234784,14.17247343,.00151053,70.9886,169.5959,60.7442,299.5190,0,U,22803,999,69307,.12842411E-3,.212E-5,0
ARIANE 40 R/B,1993-061H,2026-06-13T03:43:43.256928,14.32906302,.00107323,98.4819,231.0961,8.4254,351.7109,0,U,22830,999,70777,.77384955E-4,.168E-5,0
COSMOS 2278,1994-023A,2026-06-13T05:10:38.272800,14.14396543,.00105948,71.0547,335.2345,247.7643,112.2356,0,U,23087,999,65831,.15692486E-3,.253E-5,0
SL-16 R/B,1994-023B,2026-06-13T05:15:43.614720,14.15022621,.00030355,70.9994,230.2644,189.9335,170.1729,0,U,23088,999,65960,.19307862E-3,.326E-5,0
SL-16 R/B,1994-074B,2026-06-13T02:09:10.326240,14.79499078,.00050798,97.6991,190.9813,270.9856,151.6973,0,U,23343,999,70135,.58105719E-4,.385E-5,0
